{
    "links": {
        "self": "http://www.neowsapp.com/rest/v1/neo/3552774?api_key=iIulBulltgU6a56xZRHN4H3l9WmuAYTsLGpBGhQ2"
    },
    "id": "3552774",
    "neo_reference_id": "3552774",
    "name": "(2010 XY)",
    "designation": "2010 XY",
    "nasa_jpl_url": "http://ssd.jpl.nasa.gov/sbdb.cgi?sstr=3552774",
    "absolute_magnitude_h": 24.3,
    "estimated_diameter": {
        "kilometers": {
            "estimated_diameter_min": 0.0366906138,
            "estimated_diameter_max": 0.0820427065
        },
        "meters": {
            "estimated_diameter_min": 36.6906137531,
            "estimated_diameter_max": 82.0427064882
        },
        "miles": {
            "estimated_diameter_min": 0.0227984834,
            "estimated_diameter_max": 0.0509789586
        },
        "feet": {
            "estimated_diameter_min": 120.3760332259,
            "estimated_diameter_max": 269.1689931548
        }
    },
    "is_potentially_hazardous_asteroid": false,
    "close_approach_data": [
        {
            "close_approach_date": "2010-12-05",
            "close_approach_date_full": "2010-Dec-05 18:55",
            "epoch_date_close_approach": 1291575300000,
            "relative_velocity": {
                "kilometers_per_second": "8.1351885541",
                "kilometers_per_hour": "29286.6787946007",
                "miles_per_hour": "18197.6032765673"
            },
            "miss_distance": {
                "astronomical": "0.082559531",
                "lunar": "32.115657559",
                "kilometers": "12350729.98579897",
                "miles": "7674387.747086986"
            },
            "orbiting_body": "Earth"
        },
        {
            "close_approach_date": "2168-12-25",
            "close_approach_date_full": "2168-Dec-25 11:49",
            "epoch_date_close_approach": 6279335340000,
            "relative_velocity": {
                "kilometers_per_second": "10.8689757759",
                "kilometers_per_hour": "39128.3127932353",
                "miles_per_hour": "24312.8119131078"
            },
            "miss_distance": {
                "astronomical": "0.2055401727",
                "lunar": "79.9551271803",
                "kilometers": "30748372.035352149",
                "miles": "19106152.4187076962"
            },
            "orbiting_body": "Earth"
        }
    ],
    "orbital_data": {
        "orbit_id": "12",
        "orbit_determination_date": "2017-04-06 08:55:25",
        "first_observation_date": "2010-12-02",
        "last_observation_date": "2011-01-02",
        "data_arc_in_days": 31,
        "observations_used": 36,
        "orbit_uncertainty": "8",
        "minimum_orbit_intersection": ".0824718",
        "jupiter_tisserand_invariant": "3.389",
        "epoch_osculation": "2455536.5",
        "eccentricity": ".5309546879026651",
        "semi_major_axis": "2.275348381249279",
        "inclination": "10.55434062709107",
        "ascending_node_longitude": "76.41359716227031",
        "orbital_period": "1253.632605231103",
        "perihelion_distance": "1.067241491613234",
        "perihelion_argument": "355.5481065307658",
        "aphelion_distance": "3.483455270885325",
        "perihelion_time": "2455534.832522546914",
        "mean_anomaly": ".4788419514665529",
        "mean_motion": ".287165472960585",
        "equinox": "J2000",
        "orbit_class": {
            "orbit_class_type": "AMO",
            "orbit_class_description": "Near-Earth asteroid orbits similar to that of 1221 Amor",
            "orbit_class_range": "1.017 AU < q (perihelion) < 1.3 AU"
        }
    },
    "is_sentry_object": false
}